NORAD_CAT_ID,OBJECT_NAME,OBJECT_TYPE,EPOCH,MEAN_MOTION,ECCENTRICITY,INCLINATION,RA_OF_ASC_NODE,ARG_OF_PERICENTER,MEAN_ANOMALY,BSTAR,MEAN_MOTION_DOT,MEAN_MOTION_DDOT,TLE_LINE0,TLE_LINE1,TLE_LINE2,SEMIMAJOR_AXIS,PERIOD,APOGEE,PERIGEE,DECAYED
53578.0,STARLINK-4556,PAYLOAD,2023-03-10 21:29:33,15.08842162,7.08e-05,53.2142,288.4762,95.689,264.4183,0.00054193,8.348e-05,0.0,0 STARLINK-4556,1 53578U 22101BD  23069.89552234  .00008348  00000-0  54193-3 0  9990,2 53578  53.2142 288.4762 0000708  95.6890 264.4183 15.08842162 31173,6917.874,95.437,540.229,539.249,0.0
53578.0,STARLINK-4556,PAYLOAD,2023-03-12 00:31:06,15.0885193,7.45e-05,53.2145,283.422,106.6839,253.4235,0.00064523,9.999e-05,0.0,0 STARLINK-4556,1 53578U 22101BD  23071.02160315  .00009999  00000-0  64523-3 0  9994,2 53578  53.2145 283.4220 0000745 106.6839 253.4235 15.08851930 31345,6917.844,95.437,540.224,539.194,0.0
53578.0,STARLINK-4556,PAYLOAD,2023-03-12 22:46:30,15.08841813,0.0001193,53.2147,279.2604,85.4044,274.7085,0.00037799,5.733e-05,0.0,0 STARLINK-4556,1 53578U 22101BD  23071.94896886  .00005733  00000-0  37799-3 0  9991,2 53578  53.2147 279.2604 0001193  85.4044 274.7085 15.08841813 31489,6917.875,95.437,540.565,538.915,0.0
53578.0,STARLINK-4556,PAYLOAD,2023-03-13 13:04:59,15.08846047,0.0001293,53.2142,276.5849,89.2196,270.8944,6.0105e-06,-1.92e-06,0.0,0 STARLINK-4556,1 53578U 22101BD  23072.54512943 -.00000192  00000-0  60105-5 0  9991,2 53578  53.2142 276.5849 0001293  89.2196 270.8944 15.08846047 31571,6917.862,95.437,540.621,538.832,0.0
53578.0,STARLINK-4556,PAYLOAD,2023-03-14 00:12:40,15.08853288,0.0001402,53.214,274.5037,85.1086,275.0066,0.00023798,3.503e-05,0.0,0 STARLINK-4556,1 53578U 22101BD  23073.00880647  .00003503  00000-0  23798-3 0  9995,2 53578  53.2140 274.5037 0001402  85.1086 275.0066 15.08853288 31646,6917.84,95.437,540.675,538.735,0.0
53578.0,STARLINK-4556,PAYLOAD,2023-03-14 19:17:18,15.08854664,0.0002251,53.2139,270.9322,97.1157,263.0091,0.00049387,7.584e-05,0.0,0 STARLINK-4556,1 53578U 22101BD  23073.80368594  .00007584  00000-0  49387-3 0  9990,2 53578  53.2139 270.9322 0002251  97.1157 263.0091 15.08854664 31763,6917.836,95.437,541.258,538.143,0.0
53578.0,STARLINK-4556,PAYLOAD,2023-03-15 12:46:32,15.08847568,0.0001296,53.2136,267.6621,84.9941,275.1199,0.00024505,3.615e-05,0.0,0 STARLINK-4556,1 53578U 22101BD  23074.53232495  .00003615  00000-0  24505-3 0  9997,2 53578  53.2136 267.6621 0001296  84.9941 275.1199 15.08847568 31878,6917.857,95.437,540.619,538.826,0.0
53578.0,STARLINK-4556,PAYLOAD,2023-03-15 22:18:50,15.08870467,8.35e-05,53.2133,265.8763,127.5969,232.5099,0.0006101,9.443e-05,0.0,0 STARLINK-4556,1 53578U 22101BD  23074.92975266  .00009443  00000-0  61010-3 0  9997,2 53578  53.2133 265.8763 0000835 127.5969 232.5099 15.08870467 31931,6917.787,95.436,540.23,539.075,0.0
53578.0,STARLINK-4556,PAYLOAD,2023-03-16 12:37:20,15.08833567,0.0001328,53.2137,263.2002,104.9513,255.1626,-8.6033e-05,-1.657e-05,0.0,0 STARLINK-4556,1 53578U 22101BD  23075.52592739 -.00001657  00000-0 -86033-4 0  9998,2 53578  53.2137 263.2002 0001328 104.9513 255.1626 15.08833567 32023,6917.9,95.438,540.684,538.846,0.0
53578.0,STARLINK-4556,PAYLOAD,2023-03-16 18:58:52,15.0883436,0.0001007,53.2144,262.0126,88.1326,271.9782,-2.037e-05,-6.12e-06,0.0,0 STARLINK-4556,1 53578U 22101BD  23075.79088932 -.00000612  00000-0 -20370-4 0  9994,2 53578  53.2144 262.0126 0001007  88.1326 271.9782 15.08834360 32069,6917.898,95.438,540.459,539.066,0.0
53578.0,STARLINK-4556,PAYLOAD,2023-03-17 12:28:07,15.08837208,0.0001119,53.2145,258.7409,92.2269,267.8851,0.00013209,1.815e-05,0.0,0 STARLINK-4556,1 53578U 22101BD  23076.51953195  .00001815  00000-0  13209-3 0  9993,2 53578  53.2145 258.7409 0001119  92.2269 267.8851 15.08837208 32179,6917.889,95.438,540.528,538.98,0.0
53578.0,STARLINK-4556,PAYLOAD,2023-03-17 20:25:03,15.08845075,0.0001112,53.2136,257.2543,90.3896,269.7223,0.00036215,5.481e-05,0.0,0 STARLINK-4556,1 53578U 22101BD  23076.85073053  .00005481  00000-0  36215-3 0  9991,2 53578  53.2136 257.2543 0001112  90.3896 269.7223 15.08845075 32221,6917.865,95.437,540.499,538.961,0.0
53578.0,STARLINK-4556,PAYLOAD,2023-03-18 12:18:54,15.08843906,0.0001105,53.2114,254.2796,92.8337,267.2782,0.00028661,4.277e-05,0.0,0 STARLINK-4556,1 53578U 22101BD  23077.51313112  .00004277  00000-0  28661-3 0  9996,2 53578  53.2114 254.2796 0001105  92.8337 267.2782 15.08843906 32328,6917.868,95.437,540.498,538.969,0.0
53578.0,STARLINK-4556,PAYLOAD,2023-03-18 21:51:12,15.08858669,0.0001172,53.2127,252.4956,94.3802,265.7324,0.00053672,8.269e-05,0.0,0 STARLINK-4556,1 53578U 22101BD  23077.91056535  .00008269  00000-0  53672-3 0  9998,2 53578  53.2127 252.4956 0001172  94.3802 265.7324 15.08858669 32381,6917.823,95.436,540.499,538.878,0.0
53578.0,STARLINK-4556,PAYLOAD,2023-03-19 12:09:41,15.08839571,0.00013,53.2146,249.8196,94.4054,265.7086,-3.5258e-05,-8.49e-06,0.0,0 STARLINK-4556,1 53578U 22101BD  23078.50672868 -.00000849  00000-0 -35258-4 0  9996,2 53578  53.2146 249.8196 0001300  94.4054 265.7086 15.08839571 32477,6917.882,95.438,540.646,538.847,0.0
53578.0,STARLINK-4556,PAYLOAD,2023-03-19 20:06:37,15.08840741,0.0001132,53.2157,248.3339,88.8089,271.3032,9.6756e-06,-1.34e-06,0.0,0 STARLINK-4556,1 53578U 22101BD  23078.83792997 -.00000134  00000-0  96756-5 0  9995,2 53578  53.2157 248.3339 0001132  88.8089 271.3032 15.08840741 32521,6917.878,95.438,540.526,538.96,0.0
53578.0,STARLINK-4556,PAYLOAD,2023-03-20 04:03:32,15.08841758,0.0001238,53.2137,246.8452,88.0245,272.0889,0.00011281,1.508e-05,0.0,0 STARLINK-4556,1 53578U 22101BD  23079.16913031  .00001508  00000-0  11281-3 0  9999,2 53578  53.2137 246.8452 0001238  88.0245 272.0889 15.08841758 32573,6917.875,95.437,540.596,538.884,0.0
53578.0,STARLINK-4556,PAYLOAD,2023-03-20 15:11:14,15.08847516,0.0001101,53.214,244.7632,80.2941,279.8175,0.00027117,4.031e-05,0.0,0 STARLINK-4556,1 53578U 22101BD  23079.63280815  .00004031  00000-0  27117-3 0  9997,2 53578  53.2140 244.7632 0001101  80.2941 279.8175 15.08847516 32649,6917.857,95.437,540.484,538.961,0.0
53578.0,STARLINK-4556,PAYLOAD,2023-03-20 18:22:00,15.08854137,0.0001096,53.2142,244.169,80.836,279.2756,0.00044476,6.8e-05,0.0,0 STARLINK-4556,1 53578U 22101BD  23079.76528592  .00006800  00000-0  44476-3 0  9991,2 53578  53.2142 244.1690 0001096  80.8360 279.2756 15.08854137 32661,6917.837,95.437,540.46,538.944,0.0
53578.0,STARLINK-4556,PAYLOAD,2023-03-20 19:57:23,15.08857645,0.0001114,53.2139,243.8716,80.553,279.5588,0.00072886,0.00011336,0.0,0 STARLINK-4556,1 53578U 22101BD  23079.83152584  .00011336  00000-0  72886-3 0  9999,2 53578  53.2139 243.8716 0001114  80.5530 279.5588 15.08857645 32673,6917.826,95.436,540.462,538.921,0.0
53578.0,STARLINK-4556,PAYLOAD,2023-03-22 03:45:06,15.08847552,9.03e-05,53.2137,237.9228,92.6076,267.5019,0.00055397,8.541e-05,0.0,0 STARLINK-4556,1 53578U 22101BD  23081.15632727  .00008541  00000-0  55397-3 0  9991,2 53578  53.2137 237.9228 0000903  92.6076 267.5019 15.08847552 32871,6917.857,95.437,540.347,539.098,0.0
53578.0,STARLINK-4556,PAYLOAD,2023-03-22 16:28:12,15.0884054,0.0001561,53.2156,235.5458,83.2509,276.8661,0.00011875,1.602e-05,0.0,0 STARLINK-4556,1 53578U 22101BD  23081.68625153  .00001602  00000-0  11875-3 0  9998,2 53578  53.2156 235.5458 0001561  83.2509 276.8661 15.08840540 32954,6917.879,95.438,540.824,538.664,0.0
53578.0,STARLINK-4556,PAYLOAD,2023-03-23 14:43:35,15.08846675,0.0001295,53.2145,231.3812,94.2413,265.8727,0.00043475,6.639e-05,0.0,0 STARLINK-4556,1 53578U 22101BD  23082.61361091  .00006639  00000-0  43475-3 0  9996,2 53578  53.2145 231.3812 0001295  94.2413 265.8727 15.08846675 33092,6917.86,95.437,540.621,538.829,0.0
53578.0,STARLINK-4556,PAYLOAD,2023-03-23 19:29:45,15.08867098,0.000122,53.2144,230.4889,97.7408,262.3723,0.0013995,0.00022072,0.0,0 STARLINK-4556,1 53578U 22101BD  23082.81232664  .00022072  00000-0  13995-2 0  9993,2 53578  53.2144 230.4889 0001220  97.7408 262.3723 15.08867098 33129,6917.798,95.436,540.507,538.819,0.0
53578.0,STARLINK-4556,PAYLOAD,2023-03-23 21:05:08,15.08879069,0.0001312,53.2143,230.1914,94.804,265.3102,0.0018985,0.00030088,0.0,0 STARLINK-4556,1 53578U 22101BD  23082.87856503  .00030088  00000-0  18985-2 0  9993,2 53578  53.2143 230.1914 0001312  94.8040 265.3102 15.08879069 33132,6917.761,95.435,540.534,538.718,0.0
53578.0,STARLINK-4556,PAYLOAD,2023-03-24 00:15:55,15.08838925,0.0001546,53.2152,229.5983,49.7554,310.3573,0.00067703,0.00010503,0.0,0 STARLINK-4556,1 53578U 22101BD  23083.01105361  .00010503  00000-0  67703-3 0  9992,2 53578  53.2152 229.5983 0001546  49.7554 310.3573 15.08838925 33159,6917.884,95.438,540.818,538.679,0.0
53578.0,STARLINK-4556,PAYLOAD,2023-03-24 05:02:04,15.0887965,9.48e-05,53.2149,228.7054,79.5301,280.5798,0.0039625,0.00063412,0.0,0 STARLINK-4556,1 53578U 22101BD  23083.20977215  .00063412  00000-0  39625-2 0  9996,2 53578  53.2149 228.7054 0000948  79.5301 280.5798 15.08879650 33181,6917.759,95.435,540.28,538.968,0.0
53578.0,STARLINK-4556,PAYLOAD,2023-03-24 12:58:59,15.0887133,9.42e-05,53.2149,227.2189,79.4524,280.6574,0.0022832,0.00036268,0.0,0 STARLINK-4556,1 53578U 22101BD  23083.54096642  .00036268  00000-0  22832-2 0  9990,2 53578  53.2149 227.2189 0000942  79.4524 280.6574 15.08871330 33230,6917.785,95.436,540.301,538.998,0.0
53578.0,STARLINK-4556,PAYLOAD,2023-03-24 22:31:17,15.0885877,5.84e-05,53.2151,225.4345,67.9145,292.191,0.00015616,2.2e-05,0.0,0 STARLINK-4556,1 53578U 22101BD  23083.93839925  .00002200  00000-0  15616-3 0  9994,2 53578  53.2151 225.4345 0000584  67.9145 292.1910 15.08858770 33291,6917.823,95.436,540.092,539.284,0.0
53578.0,STARLINK-4556,PAYLOAD,2023-03-25 00:06:41,15.08806214,0.0001169,53.2151,225.1373,48.3532,311.756,-0.0027459,-0.00043683,0.0,0 STARLINK-4556,1 53578U 22101BD  23084.00464772 -.00043683  00000-0 -27459-2 0  9996,2 53578  53.2151 225.1373 0001169  48.3532 311.7560 15.08806214 33309,6917.984,95.44,540.657,539.04,0.0
